IRIDIUM 26              
1 24903U 97043A   25298.31373563  .00000694  00000+0  22645-3 0  9998
2 24903  86.3961  55.9071 0002127  87.5063 272.6378 14.37265391475430
IRIDIUM 22              
1 24907U 97043E   25298.28186790  .00000640  00000+0  21339-3 0  9992
2 24907  86.3959  59.5728 0001979  90.9226 269.2197 14.36065511475446
DUMMY MASS 1            
1 24925U 97048A   25297.88780927  .00000765  00000+0  82066-4 0  9997
2 24925  86.3320  75.3096 0008499  57.5951 302.6095 14.87112817524408
DUMMY MASS 2            
1 24926U 97048B   25297.87160297  .00000751  00000+0  80944-4 0  9997
2 24926  86.3317  76.9496 0009498  66.0095 294.2123 14.86863611524176
IRIDIUM 29              
1 24944U 97051A   25298.32761188  .00000754  00000+0  25002-3 0  9994
2 24944  86.3912  89.2727 0001957  95.2590 264.8830 14.36591058471950
IRIDIUM 33              
1 24946U 97051C   25298.17442410  .00000591  00000+0  20090-3 0  9994
2 24946  86.3828  88.6090 0008599  27.6988 332.4665 14.34982732471389
IRIDIUM 28              
1 24948U 97051E   25298.14935424  .00000719  00000+0  23379-3 0  9990
2 24948  86.3920  86.7872 0002289  77.3317 282.8136 14.37496140472512
IRIDIUM 36              
1 24967U 97056C   25298.23148042  .00000628  00000+0  20256-3 0  9998
2 24967  86.3927 118.3872 0001983  81.8990 278.2433 14.37716646470905
